43929,IRIDIUM 171,2019,100.4,860.0,+,86.4,Active,1,LEO,USA,USA,Commercial/Government,Communications,Falcon,1 43929U 19002H   24361.52512581  .00000066  00000+0  16605-4 0  9997,2 43929  86.3986 218.4760 0001999  98.4028 261.7394 14.34218212311898,14.34218212,0.0001999,LEO
43930,IRIDIUM 170,2019,97.81,860.0,+,86.61,Active,1,LEO,USA,USA,Commercial/Government,Communications,Falcon,1 43930U 19002J   24361.67653589  .00002590  00000+0  40668-3 0  9998,2 43930  86.6107 218.1984 0002414  85.4117 274.7375 14.72268972320175,14.72268972,0.0002414,LEO
43931,IRIDIUM 167,2019,100.4,860.0,+,86.4,Active,1,LEO,USA,USA,Commercial/Government,Communications,Falcon,1 43931U 19002K   24361.58855051  .00000417  00000+0  14196-3 0  9990,2 43931  86.3978 218.2205 0001680  96.1129 264.0258 14.34220193311906,14.34220193,0.000168,LEO
56726,IRIDIUM 181,2023,99.75,-1.0,+,86.69,Active,0,LEO,USA,USA,Unknown,Unknown,Unknown,1 56726U 23068S   24361.52983100  .00001995  00000+0  58369-3 0  9996,2 56726  86.6866 280.8558 0002415  95.2096 264.9381 14.43567291 84880,14.43567291,0.0002415,LEO
56727,IRIDIUM 177,2023,97.28,-1.0,+,86.2,Active,0,LEO,USA,USA,Unknown,Unknown,Unknown,1 56727U 23068T   24361.55180482  .00003478  00000+0  45423-3 0  9997,2 56727  86.1978 224.0095 0001980  80.2188 279.9256 14.80232708 86835,14.80232708,0.000198,LEO
56728,IRIDIUM 174,2023,97.28,-1.0,+,86.2,Active,0,LEO,USA,USA,Unknown,Unknown,Unknown,1 56728U 23068U   24361.54634858  .00000957  00000+0  12257-3 0  9996,2 56728  86.1982 224.1314 0002242  85.0948 275.0529 14.80204155 86830,14.80204155,0.0002242,LEO
56729,IRIDIUM 178,2023,97.28,-1.0,+,86.58,Active,0,LEO,USA,USA,Unknown,Unknown,Unknown,1 56729U 23068V   24361.74375466  .00003542  00000+0  46245-3 0  9993,2 56729  86.5779 250.6105 0002654  94.9868 265.1657 14.80253344 86867,14.80253344,0.0002654,LEO
56730,IRIDIUM 179,2023,97.28,-1.0,+,86.68,Active,0,LEO,USA,USA,Unknown,Unknown,Unknown,1 56730U 23068W   24361.26510842  .00001080  00000+0  13872-3 0  9996,2 56730  86.6786 257.3684 0002479  81.4832 278.6670 14.80222807 86797,14.80222807,0.0002479,LEO
